{
  "geometry": {
    "coordinates": [
      [
        [
          5.032369264158807,
          52.28174300375575
        ],
        [
          5.040637176346568,
          52.461437109499975
        ],
        [
          4.746415492309779,
          52.46614827705976
        ],
        [
          4.7393380662788855,
          52.28642390093961
        ],
        [
          5.032369264158807,
          52.28174300375575
        ]
      ]
    ],
    "type": "Polygon"
  },
  "properties": {
    "aoi_id": "amsterdam",
    "area_km2": 400.0000000000093,
    "country": "NL",
    "lat": 52.37403,
    "lon": 4.88969,
    "name": "Amsterdam",
    "utm_epsg": 32631
  },
  "type": "Feature"
}
