{
  "geometry": {
    "coordinates": [
      [
        [
          23.83811043433034,
          37.89104620245956
        ],
        [
          23.845058387975847,
          38.07108256872858
        ],
        [
          23.617292255286735,
          38.076379321512086
        ],
        [
          23.610898922069026,
          37.8963089670983
        ],
        [
          23.83811043433034,
          37.89104620245956
        ]
      ]
    ],
    "type": "Polygon"
  },
  "properties": {
    "aoi_id": "athens",
    "area_km2": 400.0000000000151,
    "country": "GR",
    "lat": 37.98376,
    "lon": 23.72784,
    "name": "Athens",
    "utm_epsg": 32634
  },
  "type": "Feature"
}
