{
  "geometry": {
    "coordinates": [
      [
        [
          13.560811521075262,
          52.43638356871597
        ],
        [
          13.554923303328655,
          52.61612961430209
        ],
        [
          13.259647576223282,
          52.61215879272795
        ],
        [
          13.266737600148165,
          52.43243830000118
        ],
        [
          13.560811521075262,
          52.43638356871597
        ]
      ]
    ],
    "type": "Polygon"
  },
  "properties": {
    "aoi_id": "berlin",
    "area_km2": 399.9999999999895,
    "country": "DE",
    "lat": 52.52437,
    "lon": 13.41053,
    "name": "Berlin",
    "utm_epsg": 32633
  },
  "type": "Feature"
}
