{
  "geometry": {
    "coordinates": [
      [
        [
          12.729613101905578,
          55.58920525494519
        ],
        [
          12.7191833389924,
          55.76877177105921
        ],
        [
          12.400720626139524,
          55.76244650727656
        ],
        [
          12.412602934663328,
          55.58292216560858
        ],
        [
          12.729613101905578,
          55.58920525494519
        ]
      ]
    ],
    "type": "Polygon"
  },
  "properties": {
    "aoi_id": "copenhagen",
    "area_km2": 400.0000000000291,
    "country": "DK",
    "lat": 55.67594,
    "lon": 12.56553,
    "name": "Copenhagen",
    "utm_epsg": 32633
  },
  "type": "Feature"
}
