{
  "geometry": {
    "coordinates": [
      [
        [
          -6.104991799345354,
          53.239730186521385
        ],
        [
          -6.092800724530055,
          53.41927818243597
        ],
        [
          -6.393416674630598,
          53.426222138819256
        ],
        [
          -6.404350802956724,
          53.246629135038006
        ],
        [
          -6.104991799345354,
          53.239730186521385
        ]
      ]
    ],
    "type": "Polygon"
  },
  "properties": {
    "aoi_id": "dublin",
    "area_km2": 400.0000000000279,
    "country": "IE",
    "lat": 53.33306,
    "lon": -6.24889,
    "name": "Dublin",
    "utm_epsg": 32629
  },
  "type": "Feature"
}
