{
  "geometry": {
    "coordinates": [
      [
        [
          10.141510031974116,
          53.459513000764254
        ],
        [
          10.146357488556303,
          53.639249083253404
        ],
        [
          9.843890683006824,
          53.641763365419365
        ],
        [
          9.840321795918898,
          53.46201093266824
        ],
        [
          10.141510031974116,
          53.459513000764254
        ]
      ]
    ],
    "type": "Polygon"
  },
  "properties": {
    "aoi_id": "hamburg",
    "area_km2": 399.9999999999895,
    "country": "DE",
    "lat": 53.55073,
    "lon": 9.99302,
    "name": "Hamburg",
    "utm_epsg": 32632
  },
  "type": "Feature"
}
