{
  "geometry": {
    "coordinates": [
      [
        [
          11.522329208383201,
          47.16992588366146
        ],
        [
          11.530888078801762,
          47.34971775762844
        ],
        [
          11.266304394594814,
          47.35525761610701
        ],
        [
          11.25863831754431,
          47.17543120330786
        ],
        [
          11.522329208383201,
          47.16992588366146
        ]
      ]
    ],
    "type": "Polygon"
  },
  "properties": {
    "aoi_id": "innsbruck",
    "area_km2": 399.9999999999895,
    "country": "AT",
    "lat": 47.26266,
    "lon": 11.39454,
    "name": "Innsbruck",
    "utm_epsg": 32632
  },
  "type": "Feature"
}
