{
  "geometry": {
    "coordinates": [
      [
        [
          -9.0347159168282,
          38.635062294400775
        ],
        [
          -9.034803238211182,
          38.81529791044236
        ],
        [
          -9.265173077667606,
          38.81500217444911
        ],
        [
          -9.26450776727319,
          38.6347684462993
        ],
        [
          -9.0347159168282,
          38.635062294400775
        ]
      ]
    ],
    "type": "Polygon"
  },
  "properties": {
    "aoi_id": "lisbon",
    "area_km2": 400.00000000002797,
    "country": "PT",
    "lat": 38.72509,
    "lon": -9.1498,
    "name": "Lisbon",
    "utm_epsg": 32629
  },
  "type": "Feature"
}
