{
  "geometry": {
    "coordinates": [
      [
        [
          0.01223421268909275,
          51.41511946796053
        ],
        [
          0.02410919284042029,
          51.594704172022425
        ],
        [
          -0.26427862684669173,
          51.60178488969785
        ],
        [
          -0.27502477993268837,
          51.42215505751672
        ],
        [
          0.01223421268909275,
          51.41511946796053
        ]
      ]
    ],
    "type": "Polygon"
  },
  "properties": {
    "aoi_id": "london",
    "area_km2": 399.9999999999883,
    "country": "GB",
    "lat": 51.50853,
    "lon": -0.12574,
    "name": "London",
    "utm_epsg": 32630
  },
  "type": "Feature"
}
