{
  "geometry": {
    "coordinates": [
      [
        [
          -3.583918216374456,
          40.327068609054514
        ],
        [
          -3.585477946947968,
          40.507242238455895
        ],
        [
          -3.82151611639921,
          40.505805297800656
        ],
        [
          -3.81932772017137,
          40.325640733767194
        ],
        [
          -3.583918216374456,
          40.327068609054514
        ]
      ]
    ],
    "type": "Polygon"
  },
  "properties": {
    "aoi_id": "madrid",
    "area_km2": 399.9999999999901,
    "country": "ES",
    "lat": 40.4165,
    "lon": -3.70256,
    "name": "Madrid",
    "utm_epsg": 32630
  },
  "type": "Feature"
}
