{
  "geometry": {
    "coordinates": [
      [
        [
          5.500552092137588,
          43.204357292801156
        ],
        [
          5.507939499971555,
          43.38427749107629
        ],
        [
          5.261225338685656,
          43.389424571204785
        ],
        [
          5.254563068741036,
          43.209472304100366
        ],
        [
          5.500552092137588,
          43.204357292801156
        ]
      ]
    ],
    "type": "Polygon"
  },
  "properties": {
    "aoi_id": "marseille",
    "area_km2": 400.00000000001626,
    "country": "FR",
    "lat": 43.29695,
    "lon": 5.38107,
    "name": "Marseille",
    "utm_epsg": 32631
  },
  "type": "Feature"
}
