{
  "geometry": {
    "coordinates": [
      [
        [
          11.705036039000174,
          48.04447083396002
        ],
        [
          11.714500247378853,
          48.224208881481786
        ],
        [
          11.445476175604455,
          48.23024958279004
        ],
        [
          11.436947537224777,
          48.050473774851255
        ],
        [
          11.705036039000174,
          48.04447083396002
        ]
      ]
    ],
    "type": "Polygon"
  },
  "properties": {
    "aoi_id": "munich",
    "area_km2": 399.999999999979,
    "country": "DE",
    "lat": 48.13743,
    "lon": 11.57549,
    "name": "Munich",
    "utm_epsg": 32632
  },
  "type": "Feature"
}
