{
  "geometry": {
    "coordinates": [
      [
        [
          10.919624157873821,
          59.82049759729589
        ],
        [
          10.930016625811522,
          59.999983933636486
        ],
        [
          10.571591915055738,
          60.00473576141847
        ],
        [
          10.563127299161415,
          59.825215401129434
        ],
        [
          10.919624157873821,
          59.82049759729589
        ]
      ]
    ],
    "type": "Polygon"
  },
  "properties": {
    "aoi_id": "oslo",
    "area_km2": 399.9999999999988,
    "country": "NO",
    "lat": 59.91273,
    "lon": 10.74609,
    "name": "Oslo",
    "utm_epsg": 32632
  },
  "type": "Feature"
}
