{
  "geometry": {
    "coordinates": [
      [
        [
          2.4860338539702065,
          48.764143801165346
        ],
        [
          2.484188855364649,
          48.94405343327756
        ],
        [
          2.2110778038942436,
          48.94250877771835
        ],
        [
          2.2138994869869792,
          48.7626088391214
        ],
        [
          2.4860338539702065,
          48.764143801165346
        ]
      ]
    ],
    "type": "Polygon"
  },
  "properties": {
    "aoi_id": "paris",
    "area_km2": 400.0000000000273,
    "country": "FR",
    "lat": 48.85341,
    "lon": 2.3488,
    "name": "Paris",
    "utm_epsg": 32631
  },
  "type": "Feature"
}
