{
  "geometry": {
    "coordinates": [
      [
        [
          -21.68776380130537,
          64.04686455676254
        ],
        [
          -21.692216398211936,
          64.22632858675891
        ],
        [
          -22.10438126864989,
          64.22379477369405
        ],
        [
          -22.09727852983767,
          64.04435079698219
        ],
        [
          -21.68776380130537,
          64.04686455676254
        ]
      ]
    ],
    "type": "Polygon"
  },
  "properties": {
    "aoi_id": "reykjavik",
    "area_km2": 400.00000000000705,
    "country": "IS",
    "lat": 64.13548,
    "lon": -21.89541,
    "name": "Reykjavík",
    "utm_epsg": 32627
  },
  "type": "Feature"
}
