{
  "geometry": {
    "coordinates": [
      [
        [
          12.635086139077627,
          41.80448628934688
        ],
        [
          12.628433521383304,
          41.984468791937005
        ],
        [
          12.387236454506649,
          41.97922950440559
        ],
        [
          12.394563885460784,
          41.79927978705103
        ],
        [
          12.635086139077627,
          41.80448628934688
        ]
      ]
    ],
    "type": "Polygon"
  },
  "properties": {
    "aoi_id": "rome",
    "area_km2": 399.99999999998425,
    "country": "IT",
    "lat": 41.89193,
    "lon": 12.51133,
    "name": "Rome",
    "utm_epsg": 32633
  },
  "type": "Feature"
}
