{
  "geometry": {
    "coordinates": [
      [
        [
          18.251488130862228,
          59.243513017373196
        ],
        [
          18.236951134740707,
          59.42290885622079
        ],
        [
          17.88500946738262,
          59.414980947861274
        ],
        [
          17.901391270255786,
          59.23564118431008
        ],
        [
          18.251488130862228,
          59.243513017373196
        ]
      ]
    ],
    "type": "Polygon"
  },
  "properties": {
    "aoi_id": "stockholm",
    "area_km2": 399.9999999999651,
    "country": "SE",
    "lat": 59.32938,
    "lon": 18.06871,
    "name": "Stockholm",
    "utm_epsg": 32634
  },
  "type": "Feature"
}
