{
  "geometry": {
    "coordinates": [
      [
        [
          19.22010281015811,
          69.56207867653694
        ],
        [
          19.205030956768578,
          69.74134274227647
        ],
        [
          18.68789018749675,
          69.73531366845742
        ],
        [
          18.707296057575146,
          69.55610700474551
        ],
        [
          19.22010281015811,
          69.56207867653694
        ]
      ]
    ],
    "type": "Polygon"
  },
  "properties": {
    "aoi_id": "tromso",
    "area_km2": 400.0000000000186,
    "country": "NO",
    "lat": 69.6489,
    "lon": 18.95508,
    "name": "Tromsø",
    "utm_epsg": 32634
  },
  "type": "Feature"
}
