{
  "geometry": {
    "coordinates": [
      [
        [
          21.15787703340883,
          52.13975817357138
        ],
        [
          21.15851614786425,
          52.31956961368006
        ],
        [
          20.865091442968993,
          52.319598931138636
        ],
        [
          20.865635375752365,
          52.13978730280081
        ],
        [
          21.15787703340883,
          52.13975817357138
        ]
      ]
    ],
    "type": "Polygon"
  },
  "properties": {
    "aoi_id": "warsaw",
    "area_km2": 400.00000000000466,
    "country": "PL",
    "lat": 52.22977,
    "lon": 21.01178,
    "name": "Warsaw",
    "utm_epsg": 32634
  },
  "type": "Feature"
}
