{
  "geometry": {
    "coordinates": [
      [
        [
          8.682979825642596,
          47.27713224605535
        ],
        [
          8.681899706587942,
          47.45709316977327
        ],
        [
          8.416569754401504,
          47.45605005699641
        ],
        [
          8.418550713496813,
          47.27609564396321
        ],
        [
          8.682979825642596,
          47.27713224605535
        ]
      ]
    ],
    "type": "Polygon"
  },
  "properties": {
    "aoi_id": "zurich",
    "area_km2": 400.0000000000087,
    "country": "CH",
    "lat": 47.36667,
    "lon": 8.55,
    "name": "Zürich",
    "utm_epsg": 32632
  },
  "type": "Feature"
}
